[{"OBJECT_NAME":"STARLINK-34472","OBJECT_ID":"2025-129Y","EPOCH":"2026-03-09T09:46:03.315648","MEAN_MOTION":14.98330059,"ECCENTRICITY":0.00046445,"INCLINATION":70.0008,"RA_OF_ASC_NODE":75.2207,"ARG_OF_PERICENTER":277.8623,"MEAN_ANOMALY":82.2009,"EPHEMERIS_TYPE":0,"CLASSIFICATION_TYPE":"U","NORAD_CAT_ID":64434,"ELEMENT_SET_NO":999,"REV_AT_EPOCH":4124,"BSTAR":0.00010171464,"MEAN_MOTION_DOT":1.121e-5,"MEAN_MOTION_DDOT":0},{"OBJECT_NAME":"DELTA 1 DEB","OBJECT_ID":"1977-065GK","EPOCH":"2026-03-09T12:42:00.380448","MEAN_MOTION":14.06309065,"ECCENTRICITY":0.05229834,"INCLINATION":29.0296,"RA_OF_ASC_NODE":199.7344,"ARG_OF_PERICENTER":45.239,"MEAN_ANOMALY":318.9544,"EPHEMERIS_TYPE":0,"CLASSIFICATION_TYPE":"U","NORAD_CAT_ID":39098,"ELEMENT_SET_NO":999,"REV_AT_EPOCH":61131,"BSTAR":0.00047724368,"MEAN_MOTION_DOT":2.979e-5,"MEAN_MOTION_DDOT":0}]
